ONEWEB-0721             
1 56725U 23068R   26201.35423793  .00000033  00000+0  44590-4 0  9992
2 56725  86.6737  74.9268 0001736  80.5171 279.6158 13.22471713162322
ONEWEB-0015             
1 61594U 24188A   26201.04077212 -.00000473  00000+0 -13712-2 0  9993
2 61594  87.8885  14.5499 0001389  79.7283 280.4002 13.11415998 88767
ONEWEB-0687             
1 61595U 24188B   26201.41488238 -.00000067  00000+0 -20637-3 0  9993
2 61595  87.9146 359.2652 0001823  78.3638 281.7698 13.17648837 90271
ONEWEB-0688             
1 61596U 24188C   26201.44356150  .00000016  00000+0  79631-5 0  9996
2 61596  87.9147 359.2592 0000883  60.4147 299.7072 13.17647714 90276
ONEWEB-0689             
1 61597U 24188D   26201.45617153  .00000237  00000+0  63187-3 0  9993
2 61597  87.8896  14.4302 0002053  84.6057 275.5305 13.11418768 88812
ONEWEB-0690             
1 61598U 24188E   26201.46635619  .00000547  00000+0  15066-2 0  9998
2 61598  87.8895  14.4383 0001773 112.2452 247.8864 13.11417918 88993
ONEWEB-0691             
1 61599U 24188F   26201.46127101  .00000406  00000+0  11089-2 0  9996
2 61599  87.8908  14.3509 0001598  80.2701 279.8607 13.11417816 88845
ONEWEB-0692             
1 61600U 24188G   26201.40530496  .00000356  00000+0  96803-3 0  9990
2 61600  87.8885  14.4693 0002639  92.2082 267.9348 13.11416765 88829
ONEWEB-0693             
1 61601U 24188H   26201.37944795 -.00000070  00000+0 -21218-3 0  9991
2 61601  87.9143 359.2902 0001628 119.6096 240.5198 13.17648872 90259
ONEWEB-0695             
1 61602U 24188J   26201.45787443  .00000285  00000+0  76957-3 0  9992
2 61602  87.8884  14.4508 0002329  85.7692 274.3702 13.11419004 88820
ONEWEB-0697             
1 61603U 24188K   26201.49008452  .00000015  00000+0  78597-5 0  9998
2 61603  87.8888  14.4349 0002600  94.4102 265.7323 13.11415466 88813
ONEWEB-0698             
1 61604U 24188L   26201.46805392  .00000540  00000+0  14889-2 0  9998
2 61604  87.8886  14.4527 0002667 113.7733 246.3675 13.11417592 88837
ONEWEB-0699             
1 61605U 24188M   26201.04898857  .00000643  00000+0  18051-2 0  9990
2 61605  87.8819  29.7163 0002496  94.6843 265.4569 13.10374383 87616
ONEWEB-0700             
1 61606U 24188N   26201.50883535  .00001300  00000+0  36864-2 0  9992
2 61606  87.8841  29.5392 0002471  92.1693 267.9718 13.10370269 87660
ONEWEB-0701             
1 61607U 24188P   26201.06765066  .00000193  00000+0  51551-3 0  9992
2 61607  87.8818  29.7129 0002617  95.6528 264.4898 13.10369737 87616
ONEWEB-0702             
1 61608U 24188Q   26201.43752280 -.00000424  00000+0 -12309-2 0  9994
2 61608  87.8908  14.3708 0002868  89.5669 270.5788 13.11417651 88848
ONEWEB-0704             
1 61609U 24188R   26201.51391817  .00000691  00000+0  19433-2 0  9998
2 61609  87.8823  29.6144 0002867  85.2386 274.9069 13.10371944 87657
ONEWEB-0705             
1 61610U 24188S   26201.06086797  .00000545  00000+0  15237-2 0  9994
2 61610  87.8824  29.7107 0002570  70.5604 289.5801 13.10370590 79766
ONEWEB-0706             
1 61611U 24188T   26201.04559215  .00000542  00000+0  15166-2 0  9991
2 61611  87.8822  29.7171 0002402  83.3560 276.7841 13.10374900 87684
ONEWEB-0707             
1 61612U 24188U   26201.51052064  .00000637  00000+0  17891-2 0  9996
2 61612  87.8826  29.6200 0002405  84.3831 275.7570 13.10371952 87688
ONEWEB-0708             
1 61613U 24188V   26201.45282030  .00000163  00000+0  43051-3 0  9990
2 61613  87.8813  29.6472 0001881  71.3717 288.7615 13.10368956 87653
