OBJECT_NAME,OBJECT_ID,EPOCH,MEAN_MOTION,ECCENTRICITY,INCLINATION,RA_OF_ASC_NODE,ARG_OF_PERICENTER,MEAN_ANOMALY,EPHEMERIS_TYPE,CLASSIFICATION_TYPE,NORAD_CAT_ID,ELEMENT_SET_NO,REV_AT_EPOCH,BSTAR,MEAN_MOTION_DOT,MEAN_MOTION_DDOT
ONEWEB-0721,2023-068R,2026-07-20T08:30:06.157152,13.22471713,.00017368,86.6737,74.9268,80.5171,279.6158,0,U,56725,999,16232,.44590104E-4,.33E-6,0
ONEWEB-0015,2024-188A,2026-07-20T00:58:42.711168,13.11415998,.00013891,87.8885,14.5499,79.7283,280.4002,0,U,61594,999,8876,-.13712162E-2,-.473E-5,0
ONEWEB-0687,2024-188B,2026-07-20T09:57:25.837632,13.17648837,.00018235,87.9146,359.2652,78.3638,281.7698,0,U,61595,999,9027,-.20636666E-3,-.67E-6,0
ONEWEB-0688,2024-188C,2026-07-20T10:38:43.713600,13.17647714,.00008837,87.9147,359.2592,60.4147,299.7072,0,U,61596,999,9027,.796308E-5,.16E-6,0
ONEWEB-0689,2024-188D,2026-07-20T10:56:53.220192,13.11418768,.00020538,87.8896,14.4302,84.6057,275.5305,0,U,61597,999,8881,.63186684E-3,.237E-5,0
ONEWEB-0690,2024-188E,2026-07-20T11:11:33.174816,13.11417918,.00017739,87.8895,14.4383,112.2452,247.8864,0,U,61598,999,8899,.15066308E-2,.547E-5,0
ONEWEB-0691,2024-188F,2026-07-20T11:04:13.815264,13.11417816,.00015987,87.8908,14.3509,80.2701,279.8607,0,U,61599,999,8884,.11088621E-2,.406E-5,0
ONEWEB-0692,2024-188G,2026-07-20T09:43:38.348544,13.11416765,.00026395,87.8885,14.4693,92.2082,267.9348,0,U,61600,999,8882,.96802858E-3,.356E-5,0
ONEWEB-0693,2024-188H,2026-07-20T09:06:24.302880,13.17648872,.00016287,87.9143,359.2902,119.6096,240.5198,0,U,61601,999,9025,-.21217968E-3,-.7E-6,0
ONEWEB-0695,2024-188J,2026-07-20T10:59:20.350752,13.11419004,.0002329,87.8884,14.4508,85.7692,274.3702,0,U,61602,999,8882,.7695678E-3,.285E-5,0
ONEWEB-0697,2024-188K,2026-07-20T11:45:43.302528,13.11415466,.00026008,87.8888,14.4349,94.4102,265.7323,0,U,61603,999,8881,.785968E-5,.15E-6,0
ONEWEB-0698,2024-188L,2026-07-20T11:13:59.858688,13.11417592,.00026673,87.8886,14.4527,113.7733,246.3675,0,U,61604,999,8883,.14888737E-2,.54E-5,0
ONEWEB-0699,2024-188M,2026-07-20T01:10:32.612448,13.10374383,.00024966,87.8819,29.7163,94.6843,265.4569,0,U,61605,999,8761,.18051023E-2,.643E-5,0
ONEWEB-0700,2024-188N,2026-07-20T12:12:43.374240,13.10370269,.00024715,87.8841,29.5392,92.1693,267.9718,0,U,61606,999,8766,.36864079E-2,.13E-4,0
ONEWEB-0701,2024-188P,2026-07-20T01:37:25.017024,13.10369737,.00026175,87.8818,29.7129,95.6528,264.4898,0,U,61607,999,8761,.51551227E-3,.193E-5,0
ONEWEB-0702,2024-188Q,2026-07-20T10:30:01.969920,13.11417651,.00028688,87.8908,14.3708,89.5669,270.5788,0,U,61608,999,8884,-.1230938E-2,-.424E-5,0
ONEWEB-0704,2024-188R,2026-07-20T12:20:02.529888,13.10371944,.00028676,87.8823,29.6144,85.2386,274.9069,0,U,61609,999,8765,.19433201E-2,.691E-5,0
ONEWEB-0705,2024-188S,2026-07-20T01:27:38.992608,13.10370590,.00025701,87.8824,29.7107,70.5604,289.5801,0,U,61610,999,7976,.15236952E-2,.545E-5,0
ONEWEB-0706,2024-188T,2026-07-20T01:05:39.161760,13.10374900,.00024025,87.8822,29.7171,83.3560,276.7841,0,U,61611,999,8768,.15166403E-2,.542E-5,0
ONEWEB-0707,2024-188U,2026-07-20T12:15:08.983296,13.10371952,.00024059,87.8826,29.6200,84.3831,275.7570,0,U,61612,999,8768,.17891213E-2,.637E-5,0
ONEWEB-0708,2024-188V,2026-07-20T10:52:03.673920,13.10368956,.00018816,87.8813,29.6472,71.3717,288.7615,0,U,61613,999,8765,.43050783E-3,.163E-5,0
